DMSP 5D-3 F16 (USA 172) 
1 28054U 03048A   26240.89371736  .00000042  00000+0  45457-4 0  9996
2 28054  98.9878 265.1971 0006106 307.0328 175.5794 14.14488294179760
METEOSAT-9 (MSG-2)      
1 28912U 05049B   26240.68435178  .00000128  00000+0  00000+0 0  9995
2 28912   9.5207  53.4274 0001832 356.1258 219.5088  1.00267359  7728
DMSP 5D-3 F17 (USA 191) 
1 29522U 06050A   26240.86069891  .00000069  00000+0  57939-4 0  9993
2 29522  98.7417 245.9552 0009504 202.5269 157.5489 14.15003164 22709
FENGYUN 3A              
1 32958U 08026A   26240.57451023  .00000054  00000+0  46286-4 0  9992
2 32958  98.6909 180.0617 0007596 282.0241  78.0084 14.19583939945679
EWS-G3 (GOES 14)        
1 35491U 09033A   26241.05600367 -.00000230  00000+0  00000+0 0  9993
2 35491   1.8704  82.0619 0002224  78.1618 292.3575  1.00075889  7324
DMSP 5D-3 F18 (USA 210) 
1 35951U 09057A   26241.18971299  .00000233  00000+0  14361-3 0  9990
2 35951  98.9117 221.8266 0012023  47.6611 312.5578 14.14934262869910
EWS-G2 (GOES 15)        
1 36411U 10008A   26241.12189270  .00000023  00000+0  00000+0 0  9992
2 36411   1.4723  81.9753 0005389  73.8988 288.7186  1.00270571 60374
COMS 1                  
1 36744U 10032A   26240.92559758 -.00000294  00000+0  00000+0 0  9998
2 36744   4.9853  74.4462 0010793  19.4458   0.5771  0.99169753 51817
FENGYUN 3B              
1 37214U 10059A   26241.21802288 -.00000095  00000+0 -25962-4 0  9991
2 37214  98.9569 287.5209 0021749 342.6331  97.1932 14.14853467817755
SUOMI NPP               
1 37849U 11061A   26241.15232360  .00000057  00000+0  48239-4 0  9998
2 37849  98.7980 181.5386 0002757 103.6414 256.5069 14.19530262768799
METEOSAT-10 (MSG-3)     
1 38552U 12035B   26241.10941263 -.00000003  00000+0  00000+0 0  9997
2 38552   4.8384  60.6116 0001022  97.6227 218.6866  1.00268232 51580
METOP-B                 
1 38771U 12049A   26241.11428157  .00000078  00000+0  55461-4 0  9995
2 38771  98.6444 291.1366 0003286 122.3067 237.8429 14.21455931723621
INSAT-3D                
1 39216U 13038B   26241.17058630 -.00000337  00000+0  00000+0 0  9993
2 39216   2.1069  81.5587 0001247 115.0787 331.6789  1.00273846 47816
FENGYUN 3C              
1 39260U 13052A   26241.19060361  .00000056  00000+0  49595-4 0  9998
2 39260  98.5066 211.7411 0014738 168.7333 191.4174 14.15768684668891
METEOR-M 2              
1 40069U 14037A   26241.20999123  .00000140  00000+0  83445-4 0  9996
2 40069  98.5193 214.3900 0005648 172.4278 187.6986 14.21479529629690
HIMAWARI-8              
1 40267U 14060A   26241.15392191  .00000000  00000+0  00000+0 0  9994
2 40267   0.0150 106.1508 0001533  97.9692 329.3401  1.00269287 43499
FENGYUN 2G              
1 40367U 14090A   26239.61159478 -.00000298  00000+0  00000+0 0  9995
2 40367   5.8125  71.9216 0004379 169.1512  54.3161  1.00262878 42715
METEOSAT-11 (MSG-4)     
1 40732U 15034A   26241.11114596  .00000064  00000+0  00000+0 0  9990
2 40732   3.3792  70.5935 0000748  53.3065 262.7597  1.00267830  7947
ELEKTRO-L 2             
1 41105U 15074A   26240.82135068 -.00000114  00000+0  00000+0 0  9990
2 41105   6.8699  69.6049 0001247 184.8300   3.7863  1.00271166 39231
SENTINEL-3A             
1 41335U 16011A   26241.15159345  .00000053  00000+0  39803-4 0  9997
2 41335  98.6308 307.4688 0000969  95.9216 264.2075 14.26734341548462
INSAT-3DR               
1 41752U 16054A   26241.12397270 -.00000076  00000+0  00000+0 0  9993
2 41752   0.0809  93.2931 0011237 171.4855 191.2060  1.00272106 36557
HIMAWARI-9              
1 41836U 16064A   26241.15392191 -.00000273  00000+0  00000+0 0  9996
2 41836   0.0364 265.1917 0001311 284.4085 343.9299  1.00274957 35940
GOES 16                 
1 41866U 16071A   26241.14071590 -.00000090  00000+0  00000+0 0  9990
2 41866   0.5125  84.8786 0001506 118.1423  80.2890  1.00272683 35838
FENGYUN 4A              
1 41882U 16077A   26240.99122192 -.00000356  00000+0  00000+0 0  9996
2 41882   2.5004  79.3642 0007523 164.6598 213.4732  1.00263593 35664
CYGFM05                 
1 41884U 16078A   26241.02326676  .00028264  00000+0  34009-3 0  9994
2 41884  34.9555 137.1433 0003679 132.3276 227.7762 15.59797088540123
CYGFM04                 
1 41885U 16078B   26240.93609914  .00036845  00000+0  35165-3 0  9991
2 41885  34.9309 101.3910 0003319 200.3530 159.7065 15.65667020540392
CYGFM02                 
1 41886U 16078C   26240.97054227  .00045341  00000+0  36954-3 0  9995
2 41886  34.9389  93.2785 0003660 204.1595 155.8961 15.69497004540593
CYGFM01                 
1 41887U 16078D   26240.97758477  .00028640  00000+0  33428-3 0  9990
2 41887  34.9383 137.8713 0003355 123.8988 236.2056 15.60588318540070
CYGFM08                 
1 41888U 16078E   26241.05505397  .00034675  00000+0  35602-3 0  9993
2 41888  34.9421 114.8120 0004673 170.3141 189.7676 15.63838115540372
CYGFM07                 
1 41890U 16078G   26240.94544889  .00034166  00000+0  34942-3 0  9993
2 41890  34.9433 103.8192 0003783 193.6950 166.3675 15.63944903540386
CYGFM03                 
1 41891U 16078H   26240.98095278  .00034155  00000+0  34955-3 0  9993
2 41891  34.9391 105.5014 0002926 177.0867 182.9877 15.63931071540361
FENGYUN 3D              
1 43010U 17072A   26241.22938117 -.00000056  00000+0 -47198-5 0  9999
2 43010  99.0205 216.9985 0001314 153.8851 206.2391 14.19751469455357
NOAA 20 (JPSS-1)        
1 43013U 17073A   26241.09540338  .00000041  00000+0  40612-4 0  9997
2 43013  98.7794 179.9172 0001931  70.2181 289.9203 14.19523298454815
GOES 17                 
1 43226U 18022A   26241.10033453 -.00000181  00000+0  00000+0 0  9993
2 43226   1.1173  84.5145 0000944 113.3843  86.0509  1.00271238 31151
SENTINEL-3B             
1 43437U 18039A   26241.12473191  .00000083  00000+0  52423-4 0  9995
2 43437  98.6305 307.5923 0001617  89.4303 270.7063 14.26734048434527
FENGYUN 2H              
1 43491U 18050A   26241.12501271 -.00000127  00000+0  00000+0 0  9998
2 43491   3.2115  78.1725 0002375 142.7114 240.7272  1.00274041 30176
METOP-C                 
1 43689U 18087A   26241.13023031  .00000089  00000+0  60660-4 0  9990
2 43689  98.6581 299.3765 0000810  45.4663 314.6581 14.21512206405198
GEO-KOMPSAT-2A          
1 43823U 18100A   26241.04419897  .00000000  00000+0  00000+0 0  9995
2 43823   0.0184 117.4672 0001868 358.0674   5.8962  1.00270598 28360
METEOR-M2 2             
1 44387U 19038A   26241.22999653  .00000397  00000+0  19138-3 0  9990
2 44387  98.9213 229.6174 0001795 126.9376 233.1967 14.24383477371697
FENGYUN 3E              
1 49008U 21062A   26241.20529303  .00000278  00000+0  15169-3 0  9992
2 49008  98.7532 243.8117 0000773 193.6677 166.4479 14.19910384266943
GOES 18                 
1 51850U 22021A   26241.17439851  .00000098  00000+0  00000+0 0  9994
2 51850   0.0349 309.0654 0000852 266.7851  47.3272  1.00271069  7327
NOAA 21 (JPSS-2)        
1 54234U 22150A   26240.84504349  .00000036  00000+0  37739-4 0  9990
2 54234  98.7078 178.4176 0002014  23.2483 336.8784 14.19547077196855
METEOSAT-12 (MTG-I1)    
1 54743U 22170C   26240.89545485 -.00000007  00000+0  00000+0 0  9993
2 54743   0.7582  23.9114 0004077  87.7922 187.4256  1.00268705 13703
TIANMU-1 03             
1 55973U 23039A   26241.21280142  .00017055  00000+0  31474-3 0  9990
2 55973  97.5258  58.1664 0003000 160.0868 200.0500 15.49176620192133
TIANMU-1 04             
1 55974U 23039B   26241.17247249  .00016643  00000+0  30005-3 0  9998
2 55974  97.5201  57.2875 0003709 162.6729 197.4649 15.49845912192147
TIANMU-1 05             
1 55975U 23039C   26241.19727139  .00016165  00000+0  29934-3 0  9990
2 55975  97.5246  57.7377 0002103 182.7791 177.3448 15.49092558192119
TIANMU-1 06             
1 55976U 23039D   26241.18088666  .00016860  00000+0  30529-3 0  9999
2 55976  97.5246  58.4332 0002730 172.4564 187.6728 15.49722264192141
FENGYUN 3G              
1 56232U 23055A   26241.19747341  .00023864  00000+0  38029-3 0  9991
2 56232  49.9935 329.5919 0012410 319.8335  40.1714 15.52992846191354
METEOR-M2 3             
1 57166U 23091A   26241.17109441  .00000008  00000+0  22157-4 0  9990
2 57166  98.6022 294.6327 0003240 333.6608  26.4406 14.24051657164902
TIANMU-1 07             
1 57399U 23101A   26240.94858528  .00005744  00000+0  19701-3 0  9993
2 57399  97.2535 289.9592 0001482 188.2568 171.8650 15.30545834172773
TIANMU-1 08             
1 57400U 23101B   26240.98050030  .00005564  00000+0  19093-3 0  9996
2 57400  97.2523 289.7504 0003025 193.7748 166.3411 15.30545140172774
TIANMU-1 09             
1 57401U 23101C   26240.96259595  .00005817  00000+0  19962-3 0  9998
2 57401  97.2482 289.1110 0002046 209.4397 150.6729 15.30523499172774
TIANMU-1 10             
1 57402U 23101D   26240.93074799  .00005841  00000+0  20013-3 0  9993
2 57402  97.2561 290.2063 0003255 216.4124 143.6897 15.30575123172760
FENGYUN 3F              
1 57490U 23111A   26240.97598410  .00000036  00000+0  37511-4 0  9999
2 57490  98.6786 309.6081 0000866 110.6798 249.4472 14.19949136159194
ARKTIKA-M 2             
1 58584U 23198A   26230.07438780  .00000056  00000+0  00000+0 0  9992
2 58584  63.2129 147.3319 6901614 267.6403  18.7125  2.00593343 19562
TIANMU-1 11             
1 58645U 23205A   26240.97277933  .00004997  00000+0  18741-3 0  9993
2 58645  97.3437 261.4164 0010578 104.1879 256.0536 15.27637570148630
TIANMU-1 12             
1 58646U 23205B   26240.95458159  .00005178  00000+0  19612-3 0  9993
2 58646  97.3427 261.1175 0009461  92.2031 268.0292 15.27306352148616
TIANMU-1 13             
1 58647U 23205C   26240.98628818  .00005284  00000+0  20017-3 0  9997
2 58647  97.3453 261.4487 0008072  77.2571 282.9570 15.27298329148612
TIANMU-1 14             
1 58648U 23205D   26240.90412501  .00005118  00000+0  19381-3 0  9998
2 58648  97.3391 260.4927 0008880  81.2579 278.9665 15.27319262148601
TIANMU-1 19             
1 58660U 23208A   26240.91458889  .00007903  00000+0  25363-3 0  9996
2 58660  97.4562 357.6606 0006162  66.3655 293.8233 15.32574967148461
TIANMU-1 20             
1 58661U 23208B   26240.96120449  .00008365  00000+0  25833-3 0  9995
2 58661  97.4507 358.4194 0008340  69.9450 290.2690 15.33770062148579
TIANMU-1 21             
1 58662U 23208C   26240.90065753  .00009694  00000+0  27618-3 0  9995
2 58662  97.4571   1.3664 0008137  63.2573 296.9502 15.36272866148728
TIANMU-1 22             
1 58663U 23208D   26240.92288456  .00007376  00000+0  24138-3 0  9994
2 58663  97.4559 357.5393 0005143  86.0365 274.1464 15.31975786148468
TIANMU-1 15             
1 58700U 24004A   26240.96654068  .00005234  00000+0  19831-3 0  9996
2 58700  97.4671  67.1787 0008798  81.6447 278.5790 15.27305232146889
TIANMU-1 16             
1 58701U 24004B   26240.95297396  .00004854  00000+0  18361-3 0  9997
2 58701  97.4621  66.3582 0007500  94.1659 266.0438 15.27409291146884
TIANMU-1 17             
1 58702U 24004C   26240.93856630  .00005230  00000+0  19767-3 0  9998
2 58702  97.4647  66.8547 0007022  98.2054 261.9981 15.27404552146873
TIANMU-1 18             
1 58703U 24004D   26240.98281966  .00004888  00000+0  18548-3 0  9992
2 58703  97.4663  67.1657 0006542  83.4242 276.7742 15.27307481146882
INSAT-3DS               
1 58990U 24033A   26240.91174825 -.00000155  00000+0  00000+0 0  9994
2 58990   0.0784 265.4921 0001366 270.1431 211.8365  1.00271423 47798
METEOR-M2 4             
1 59051U 24039A   26240.98720343 -.00000005  00000+0  17516-4 0  9997
2 59051  98.7082 199.3932 0006476 328.1126  31.9659 14.22436007129619
GOES 19                 
1 60133U 24119A   26240.88054812 -.00000247  00000+0  00000+0 0  9992
2 60133   0.0205 265.0597 0000523 332.3198 341.5265  1.00271185  7698
MTG-S1                  
1 64723U 25143A   26240.89545485 -.00000006  00000+0  00000+0 0  9994
2 64723   0.5990 344.8520 0003655 250.6707  63.5961  1.00273478  4140
METOP-SGA1              
1 65159U 25172A   26240.60135492  .00000043  00000+0  39539-4 0  9996
2 65159  98.7104 298.8959 0001056  82.2854 277.8444 14.21500924 54078
FENGYUN 3H              
1 65815U 25219A   26241.11424934  .00000026  00000+0  32775-4 0  9992
2 65815  98.6794 180.4731 0001005 105.1840 254.9447 14.19930637 47738
